BEIDOU-2 IGSO-1         
1 36828U 10036A   26132.68902604 -.00000041  00000+0  00000+0 0  9990
2 36828  54.2951 163.2807 0058855 224.5644 197.8413  1.00282752 57743
BEIDOU-2 G4             
1 37210U 10057A   26132.63592289 -.00000098  00000+0  00000+0 0  9990
2 37210   3.5584  69.1415 0005528 211.1835 338.9958  1.00272776 56937
BEIDOU-2 IGSO-2         
1 37256U 10068A   26131.68069234 -.00000217  00000+0  00000+0 0  9998
2 37256  47.6185 272.2854 0053911 212.0964  96.0853  1.00295576 56422
BEIDOU-2 IGSO-3         
1 37384U 11013A   26131.75395624 -.00000196  00000+0  00000+0 0  9990
2 37384  62.3600  40.4988 0034014 186.6429  22.0878  1.00277207 55299
BEIDOU-2 IGSO-4         
1 37763U 11038A   26132.55512303  .00000071  00000+0  00000+0 0  9993
2 37763  54.5847 165.9879 0158047 233.0606 122.6137  1.00291444 54287
BEIDOU-2 IGSO-5         
1 37948U 11073A   26131.86275206 -.00000165  00000+0  00000+0 0  9993
2 37948  47.7477 271.9945 0111688 220.6751 140.2883  1.00257075 52778
BEIDOU-2 G5             
1 38091U 12008A   26132.54810301  .00000071  00000+0  00000+0 0  9994
2 38091   3.4846  69.8964 0011134 271.8936 144.5207  1.00271565 52014
BEIDOU-2 M3             
1 38250U 12018A   26132.21251275 -.00000038  00000+0  00000+0 0  9999
2 38250  55.7895 306.0876 0019771 276.8668  82.9033  1.86230132 95271
BEIDOU-2 M4             
1 38251U 12018B   26128.92300840 -.00000036  00000+0  00000+0 0  9994
2 38251  55.6931 305.4151 0010883 282.3733  77.4996  1.86229854 95211
BEIDOU-2 M6             
1 38775U 12050B   26131.31765641 -.00000024  00000+0  00000+0 0  9999
2 38775  56.5136  64.1133 0014350 351.0924   8.8698  1.86230920 92622
BEIDOU-2 G6             
1 38953U 12059A   26132.41055140 -.00000162  00000+0  00000+0 0  9997
2 38953   4.3306  73.8925 0010647 320.5261  67.6404  1.00272429 49554
BEIDOU-3S IGSO-1S       
1 40549U 15019A   26132.41271808 -.00000171  00000+0  00000+0 0  9991
2 40549  49.2649 295.8917 0037646 190.2625 346.7594  1.00258094 40719
BEIDOU-3S M2S           
1 40748U 15037A   26131.27381031 -.00000037  00000+0  00000+0 0  9996
2 40748  54.9054 303.3168 0007465 268.0236  91.8843  1.86232381 73439
BEIDOU-3S M1S           
1 40749U 15037B   26131.48573309 -.00000037  00000+0  00000+0 0  9991
2 40749  54.9010 303.2971 0004176  55.3596 304.6730  1.86254916 73444
BEIDOU-3S IGSO-2S       
1 40938U 15053A   26131.83149812 -.00000165  00000+0  00000+0 0  9998
2 40938  49.2811 259.2153 0064022 190.8147 175.4917  1.00268034 38999
BEIDOU-2 IGSO-6         
1 41434U 16021A   26131.71691539 -.00000164  00000+0  00000+0 0  9990
2 41434  60.1769  38.4042 0057434 232.3811 311.4732  1.00265884 37118
BEIDOU-2 G7             
1 41586U 16037A   26132.62963387 -.00000340  00000+0  00000+0 0  9995
2 41586   1.6316  68.9650 0007673 358.2312 140.4586  1.00270475  6532
BEIDOU-3 M1             
1 43001U 17069A   26132.15694874 -.00000027  00000+0  00000+0 0  9997
2 43001  56.6617  64.2720 0011635 320.2604  39.6401  1.86231332 57931
BEIDOU-3 M2             
1 43002U 17069B   26131.02189088 -.00000022  00000+0  00000+0 0  9994
2 43002  56.6651  64.3454 0009686  17.2758 342.7452  1.86231163 57904
BEIDOU-3 M7             
1 43107U 18003A   26131.83723402 -.00000040  00000+0  00000+0 0  9992
2 43107  54.3617 303.5824 0005213  84.7412 275.3112  1.86228311 56672
BEIDOU-3 M8             
1 43108U 18003B   26132.31952032 -.00000041  00000+0  00000+0 0  9991
2 43108  54.3542 303.5475 0002168 278.1299  81.8371  1.86231243 56697
BEIDOU-3 M4             
1 43207U 18018A   26132.22522381 -.00000027  00000+0  00000+0 0  9991
2 43207  56.6208  64.3349 0007758   6.5048 353.4905  1.86231343 56072
BEIDOU-3 M3             
1 43208U 18018B   26131.21777272 -.00000022  00000+0  00000+0 0  9996
2 43208  56.6194  64.3718 0009642 332.4369  27.4998  1.86231284 56050
BEIDOU-3 M9             
1 43245U 18029A   26132.50933655 -.00000042  00000+0  00000+0 0  9993
2 43245  54.2280 301.1966 0000808 100.6127 259.3848  1.86228370 55231
BEIDOU-3 M10            
1 43246U 18029B   26132.44387913 -.00000042  00000+0  00000+0 0  9997
2 43246  54.2256 301.2252 0004611  36.4559 323.5641  1.86229416 55210
BEIDOU-2 IGSO-7         
1 43539U 18057A   26130.51871762 -.00000011  00000+0  00000+0 0  9995
2 43539  55.1875 163.3876 0104003 237.7354 126.1724  1.00262765 28754
BEIDOU-3 M5             
1 43581U 18062A   26132.13113073  .00000077  00000+0  00000+0 0  9993
2 43581  54.0834 183.5303 0004814 287.8378  72.1926  1.86229005 52962
BEIDOU-3 M6             
1 43582U 18062B   26129.30962619  .00000044  00000+0  00000+0 0  9991
2 43582  54.0831 183.6153 0004808  18.9796 341.1148  1.86227992 52917
BEIDOU-3 M12            
1 43602U 18067A   26129.24802271  .00000046  00000+0  00000+0 0  9991
2 43602  54.1783 182.3610 0007840  32.7480 327.3771  1.86227965 52394
BEIDOU-3 M11            
1 43603U 18067B   26132.06777900  .00000079  00000+0  00000+0 0  9992
2 43603  54.1757 182.2292 0004423  17.5437 342.5545  1.86227440 52473
BEIDOU-3 M13            
1 43622U 18072A   26132.02281462 -.00000027  00000+0  00000+0 0  9992
2 43622  56.5943  63.8530 0008367 321.3258  38.6007  1.86231523 51982
